STARLINK-4104           
1 53163U 22083AH  24086.43197601 -.00001497  00000+0 -75992-4 0  9992
2 53163  53.2160 126.2035 0001230  88.6986 271.4147 15.08839883 93682
STARLINK-4116           
1 53164U 22083AJ  24086.82571659  .00009063  00000+0  58696-3 0  9991
2 53164  53.2152 124.2919 0001696  81.2098 278.9086 15.08830566 94372
STARLINK-4090           
1 53165U 22083AK  24086.81099107 -.00002848  00000+0 -16097-3 0  9999
2 53165  53.2170 124.3595 0001589 100.2456 259.8715 15.08825498 94370
STARLINK-4110           
1 53166U 22083AL  24086.48715178 -.00003161  00000+0 -18065-3 0  9992
2 53166  53.2158 125.8112 0001752  76.3203 283.7984 15.08827158 93696
STARLINK-3683           
1 53167U 22083AM  24086.76268437  .00021791  00000+0  13824-2 0  9999
2 53167  53.2157 109.5610 0001190  82.4560 277.6568 15.08855404 94571
STARLINK-4105           
1 53168U 22083AN  24086.48347648  .00008312  00000+0  53975-3 0  9997
2 53168  53.2144 125.8281 0001453  99.4269 260.6887 15.08837920 93690
STARLINK-4117           
1 53169U 22083AP  24086.47567685 -.00004871  00000+0 -28818-3 0  9998
2 53169  53.2169 111.1201 0001523  99.1804 260.9361 15.08838468 93887
STARLINK-4095           
1 53170U 22083AQ  24086.51152847  .00005196  00000+0  34453-3 0  9996
2 53170  53.2159 120.6477 0001568  94.1692 265.9479 15.08815066 93768
STARLINK-4052           
1 53171U 22083AR  24086.75116153  .00012068  00000+0  77498-3 0  9995
2 53171  53.2170  94.3829 0001602 102.8956 257.2215 15.08841594 94789
STARLINK-4299           
1 53172U 22083AS  24086.37167543  .00008413  00000+0  54624-3 0  9998
2 53172  53.2144 121.2416 0001575  87.8521 272.2651 15.08827195 93738
STARLINK-4300           
1 53173U 22083AT  24086.72313010  .00001542  00000+0  11500-3 0  9992
2 53173  53.2160  99.7369 0001492  96.2735 263.8427 15.08823692 94705
STARLINK-4205           
1 53174U 22083AU  24086.54605827 -.00008079  00000+0 -49034-3 0  9990
2 53174  53.2166 135.4761 0001781 103.0392 257.0799 15.08818890 93556
STARLINK-4292           
1 53175U 22083AV  24086.54879080 -.00002585  00000+0 -14444-3 0  9998
2 53175  53.2167 135.5286 0001604 105.5892 254.5277 15.08820329 93550
STARLINK-4294           
1 53176U 22083AW  24086.48667801 -.00003487  00000+0 -20121-3 0  9999
2 53176  53.2154 110.7213 0001482  94.9659 265.1502 15.08825263 93896
STARLINK-4298           
1 53177U 22083AX  24086.31832445  .00001799  00000+0  13120-3 0  9993
2 53177  53.2163 101.5565 0001641  99.2547 260.8631 15.08819015 94003
STARLINK-4280           
1 53178U 22083AY  24086.40986680 -.00003185  00000+0 -18216-3 0  9999
2 53178  53.2139 126.1554 0001196  68.0137 292.0982 15.08827292 93665
STARLINK-4276           
1 53179U 22083AZ  24086.26998296  .00033721  00000+0  21276-2 0  9996
2 53179  53.2152  86.3818 0001493  89.0847 271.0316 15.08824765 94854
STARLINK-4258           
1 53180U 22083BA  24086.69321261 -.00001405  00000+0 -70222-4 0  9990
2 53180  53.2180  84.7565 0001382  94.3491 265.7659 15.08836503 94919
STARLINK-4273           
1 53181U 22083BB  24086.68583533 -.00000452  00000+0 -10299-4 0  9991
2 53181  53.2178  84.7125 0001306  98.8440 261.2700 15.08844449 94914
STARLINK-4278           
1 53182U 22083BC  24086.44713311  .00000374  00000+0  41628-4 0  9996
2 53182  53.2190 100.9787 0001722 106.7898 253.3284 15.08820054 94029
STARLINK-4268           
1 53183U 22083BD  24086.38915791  .00009038  00000+0  58538-3 0  9999
2 53183  53.2154  91.1623 0001548  93.5031 266.6138 15.08831107 94158
STARLINK-4257           
1 53184U 22083BE  24086.72998369  .00012342  00000+0  79229-3 0  9992
2 53184  53.2167  84.3030 0001505  96.5015 263.6149 15.08833613 94925
STARLINK-4391           
1 53189U 22084A   24086.60648980  .00014139  00000+0  11034-2 0  9991
2 53189  97.6548 148.6000 0003626 225.1462 134.9468 15.01247919 93001
STARLINK-4332           
1 53190U 22084B   24086.43405932 -.00001284  00000+0 -95410-4 0  9993
2 53190  97.6546 148.4432 0002158  90.7880 269.3591 15.01260096 92973
STARLINK-4369           
1 53191U 22084C   24086.72844316  .00000395  00000+0  35359-4 0  9995
2 53191  97.6570 148.7376 0000793 133.5847 226.5443 15.01256795 92728
STARLINK-4375           
1 53192U 22084D   24086.72660705  .00000191  00000+0  19437-4 0  9997
2 53192  97.6576 148.7378 0000319  15.6331 344.4903 15.01241122 92728
STARLINK-4351           
1 53193U 22084E   24086.59883470  .00000832  00000+0  69367-4 0  9998
2 53193  97.6563 148.6076 0002698 200.2624 159.8494 15.01255490 93343
STARLINK-4382           
1 53194U 22084F   24086.59698847  .00006702  00000+0  52602-3 0  9996
2 53194  97.6557 148.6066 0001586 151.4943 208.6368 15.01251843 92320
STARLINK-4404           
1 53195U 22084G   24086.71713168  .00008876  00000+0  69279-3 0  9997
2 53195  97.6562 148.7568 0001934  86.1135 274.0310 15.01366938 92729
STARLINK-4407           
1 53196U 22084H   24086.71918588  .00001042  00000+0  85748-4 0  9999
2 53196  97.6572 148.7581 0001093  97.3189 262.8159 15.01241081 92722
STARLINK-4403           
1 53197U 22084J   24086.58772724 -.00002148  00000+0 -16264-3 0  9991
2 53197  97.6578 148.6084 0000362 125.8877 234.2381 15.01265122 92323
STARLINK-4385           
1 53198U 22084K   24086.72448789  .00008308  00000+0  64929-3 0  9992
2 53198  97.6587 148.7392 0000441 301.7279  58.3902 15.01340714 92725
STARLINK-4395           
1 53199U 22084L   24086.45628582 -.00000887  00000+0 -64486-4 0  9999
2 53199  97.6585 148.4666 0000498 117.4365 242.6909 15.01249427 92303
STARLINK-4417           
1 53200U 22084M   24086.71942945  .00003533  00000+0  27954-3 0  9990
2 53200  97.6570 148.7477 0000328 282.4635  77.6552 15.01253698 92729
STARLINK-4405           
1 53201U 22084N   24086.44355997  .00000007  00000+0  51157-5 0  9993
2 53201  97.6554 148.4828 0001723  93.6334 266.5087 15.01265330 92309
STARLINK-4411           
1 53202U 22084P   24086.71548212  .00002564  00000+0  20415-3 0  9999
2 53202  97.6567 148.7461 0001520  84.7088 275.4309 15.01252946 92723
STARLINK-4409           
1 53203U 22084Q   24086.71178721  .00000870  00000+0  72356-4 0  9994
2 53203  97.6566 148.7353 0001826  93.2677 266.8756 15.01235326 92724
STARLINK-4410           
1 53204U 22084R   24086.44912333 -.00000605  00000+0 -42490-4 0  9994
2 53204  97.6566 148.4788 0001986  91.8243 268.3208 15.01253196 92964
STARLINK-4397           
1 53205U 22084S   24086.44147365 -.00002027  00000+0 -15325-3 0  9996
2 53205  97.6542 148.4675 0002035 100.2219 259.9235 15.01256051 92305
STARLINK-4408           
1 53206U 22084T   24086.76362671  .00004236  00000+0  33422-3 0  9991
2 53206  97.6546 148.8088 0001941  87.8637 272.2810 15.01258751 92734
STARLINK-4413           
1 53207U 22084U   24086.70622521  .00002810  00000+0  22334-3 0  9995
2 53207  97.6537 148.7268 0001742  87.1100 273.0323 15.01251971 92725
STARLINK-4425           
1 53208U 22084V   24086.58032374 -.00000366  00000+0 -23927-4 0  9999
2 53208  97.6562 148.6059 0002300  97.6061 262.5424 15.01259890 92323
STARLINK-4423           
1 53209U 22084W   24086.43801335  .00001190  00000+0  97244-4 0  9992
2 53209  97.6514 148.4598 0002634  98.8572 261.2950 15.01253251 92300
STARLINK-4427           
1 53210U 22084X   24086.44331505  .00000011  00000+0  54621-5 0  9996
2 53210  97.6548 148.4699 0001972  95.4121 264.7328 15.01266326 92841
STARLINK-4419           
1 53211U 22084Y   24086.43245099 -.00004756  00000+0 -36610-3 0  9996
2 53211  97.6537 148.4531 0001918  90.5006 269.6438 15.01240840 92820
STARLINK-4416           
1 53212U 22084Z   24086.77099365  .00009404  00000+0  73548-3 0  9991
2 53212  97.6552 148.7874 0002031  83.0622 277.0833 15.01272680 92738
STARLINK-4414           
1 53213U 22084AA  24086.76176753  .00006211  00000+0  48763-3 0  9992
2 53213  97.6548 148.7714 0002087  92.8514 267.2949 15.01264893 92732
STARLINK-4353           
1 53214U 22084AB  24086.43590588  .00001328  00000+0  10794-3 0  9990
2 53214  97.6534 148.4556 0001947  99.6671 260.4774 15.01258523 92309
STARLINK-4335           
1 53215U 22084AC  24086.89323464  .00012274  00000+0  95903-3 0  9995
2 53215  97.6547 148.9004 0002046  94.9771 265.1687 15.01240914 92756
STARLINK-4376           
1 53216U 22084AD  24086.43220666 -.00000069  00000+0 -73880-6 0  9990
2 53216  97.6524 148.4481 0002456  87.3970 272.7536 15.01258803 92302
STARLINK-4379           
1 53217U 22084AE  24086.61549544 -.00000291  00000+0 -18042-4 0  9994
2 53217  97.6544 148.6420 0000625 205.9892 154.1301 15.01254736 92334
STARLINK-4384           
1 53218U 22084AF  24086.88420526  .00017289  00000+0  13472-2 0  9995
2 53218  97.6542 148.9190 0000218  56.0931 304.0313 15.01264427 92389
STARLINK-4373           
1 53219U 22084AG  24086.41925211 -.00001034  00000+0 -75956-4 0  9996
2 53219  97.6543 148.4314 0000472 112.3354 247.7920 15.01246614 92308
STARLINK-4363           
1 53220U 22084AH  24086.89137583  .00018232  00000+0  14199-2 0  9993
2 53220  97.6541 148.8983 0001777  99.8642 260.2783 15.01272004 92389
STARLINK-4377           
1 53221U 22084AJ  24086.88396354  .00002476  00000+0  19734-3 0  9990
2 53221  97.6555 148.8892 0000318 155.6820 204.4419 15.01250108 92379
STARLINK-4381           
1 53222U 22084AK  24086.62290486  .00001781  00000+0  14326-3 0  9992
2 53222  97.6544 148.6328 0001445  83.2477 276.8912 15.01253069 92332
STARLINK-4354           
1 53223U 22084AL  24086.62314982 -.00000355  00000+0 -23038-4 0  9990
2 53223  97.6548 148.6156 0001139  89.7027 270.4327 15.01258429 92333
STARLINK-4356           
1 53224U 22084AM  24086.88767287  .00015217  00000+0  11863-2 0  9991
2 53224  97.6542 148.8937 0000876 104.8153 255.3168 15.01276587 92388
STARLINK-4358           
1 53225U 22084AN  24086.74509552  .00008902  00000+0  69650-3 0  9997
2 53225  97.6550 148.7489 0002678 245.2885 114.8061 15.01273242 92356
STARLINK-4359           
